     3.02           N: GNSS NAV DATA    R: GLONASS          RINEX VERSION / TYPE
cnvtToRINEX 2.29.0  REGINA              06-Jan-16 00:45 UTC PGM / RUN BY / DATE 
----------------------------------------------------------- COMMENT             
GLUT    0.414438545704D-07 0.000000000000D+00 503808 1878   TIME SYSTEM CORR    
    17                                                      LEAP SECONDS        
                                                            END OF HEADER       
R15 2016 01 05 18 45 00 0.609727576375D-04 0.909494701773D-12 0.666000000000D+05
     0.361098095703D+04-0.119437980652D+01 0.279396772385D-08 0.000000000000D+00
     0.140167675781D+05 0.262148952484D+01 0.186264514923D-08 0.000000000000D+00
     0.210455571289D+05-0.153231239319D+01 0.000000000000D+00 0.000000000000D+00
R 5 2016 01 05 18 45 00 0.274460762739D-05-0.909494701773D-12 0.666000000000D+05
     0.253415087891D+05-0.405479431152D+00 0.931322574615D-09 0.000000000000D+00
    -0.557499511719D+03-0.104969978333D+00 0.186264514923D-08 0.100000000000D+01
    -0.291034472656D+04-0.352831649780D+01 0.931322574615D-09 0.000000000000D+00
R14 2016 01 05 18 45 00 0.264898873866D-03 0.363797880709D-11 0.666000000000D+05
    -0.612543164063D+04-0.444183349609D+00 0.186264514923D-08 0.000000000000D+00
     0.225219506836D+05 0.134618091583D+01 0.000000000000D+00-0.700000000000D+01
     0.101949721680D+05-0.324216365814D+01 0.000000000000D+00 0.000000000000D+00
R 6 2016 01 05 18 45 00 0.813817605376D-04 0.000000000000D+00 0.666000000000D+05
     0.189101323242D+05 0.200854396820D+01 0.931322574615D-09 0.000000000000D+00
    -0.863834472656D+04-0.258784294128D+00 0.186264514923D-08-0.400000000000D+01
     0.147401040039D+05-0.272736454010D+01 0.000000000000D+00 0.000000000000D+00
R19 2016 01 05 18 45 00-0.144982710481D-03-0.909494701773D-12 0.666000000000D+05
     0.154294863281D+05 0.147382640839D+01 0.931322574615D-09 0.000000000000D+00
     0.829107666016D+04 0.207417964935D+01 0.000000000000D+00 0.300000000000D+01
    -0.185426508789D+05 0.215288448334D+01 0.279396772385D-08 0.000000000000D+00
R16 2016 01 05 18 45 00 0.275038182735D-04 0.909494701773D-12 0.666000000000D+05
     0.136895937500D+05-0.132776737213D+01 0.931322574615D-09 0.000000000000D+00
    -0.588384326172D+04 0.251143836975D+01 0.186264514923D-08-0.100000000000D+01
     0.206993764648D+05 0.158235454559D+01-0.931322574615D-09 0.000000000000D+00
R24 2016 01 05 18 45 00-0.132529996336D-03 0.000000000000D+00 0.666000000000D+05
    -0.745940771484D+04-0.172394561768D+01 0.186264514923D-08 0.000000000000D+00
     0.801788378906D+04-0.264756679535D+01 0.931322574615D-09 0.200000000000D+01
     0.230169257813D+05 0.363656044006D+00-0.186264514923D-08 0.000000000000D+00
R18 2016 01 05 19 15 00 0.834483653307D-04 0.909494701773D-12 0.684000000000D+05
     0.148891386719D+05-0.247469902039D+00 0.279396772385D-08 0.000000000000D+00
     0.202175019531D+05-0.568532943726D+00 0.186264514923D-08-0.300000000000D+01
     0.432679150391D+04 0.352585983276D+01 0.186264514923D-08 0.000000000000D+00
R19 2016 01 05 19 15 00-0.144984573126D-03-0.909494701773D-12 0.684000000000D+05
     0.180238593750D+05 0.136292839050D+01 0.931322574615D-09 0.000000000000D+00
     0.113940346680D+05 0.136098003387D+01 0.931322574615D-09 0.300000000000D+01
    -0.140007065430D+05 0.286094856262D+01 0.279396772385D-08 0.000000000000D+00
R15 2016 01 05 19 15 00 0.609746202827D-04 0.909494701773D-12 0.684000000000D+05
     0.197250244141D+04-0.630421638489D+00 0.279396772385D-08 0.000000000000D+00
     0.185044189453D+05 0.231511211395D+01 0.931322574615D-09 0.000000000000D+00
     0.175130107422D+05-0.236720180511D+01 0.000000000000D+00 0.000000000000D+00
R 5 2016 01 05 19 15 00 0.274274498224D-05-0.909494701773D-12 0.684000000000D+05
     0.238456640625D+05-0.123763370514D+01 0.931322574615D-09 0.000000000000D+00
    -0.564942382813D+03 0.133264541626D+00 0.931322574615D-09 0.100000000000D+01
    -0.906688476563D+04-0.326791763306D+01 0.186264514923D-08 0.000000000000D+00
R14 2016 01 05 19 15 00 0.264907255769D-03 0.363797880709D-11 0.684000000000D+05
    -0.646960937500D+04 0.309553146362D-01 0.186264514923D-08 0.000000000000D+00
     0.243012832031D+05 0.599934577942D+00 0.000000000000D+00-0.700000000000D+01
     0.403886376953D+04-0.355333137512D+01 0.931322574615D-09 0.000000000000D+00
R 6 2016 01 05 19 15 00 0.813826918602D-04 0.000000000000D+00 0.684000000000D+05
     0.218419912109D+05 0.122702312469D+01 0.931322574615D-09 0.000000000000D+00
    -0.925167041016D+04-0.384935379028D+00 0.186264514923D-08-0.400000000000D+01
     0.932306787109D+04-0.325236415863D+01 0.000000000000D+00 0.000000000000D+00
R 4 2016 01 05 19 15 00 0.152035616338D-03 0.909494701773D-12 0.684000000000D+05
     0.117590903320D+05-0.285724830627D+01 0.000000000000D+00 0.000000000000D+00
     0.792047558594D+04 0.522396087646D+00 0.000000000000D+00 0.600000000000D+01
    -0.211954956055D+05-0.139027976990D+01 0.279396772385D-08 0.000000000000D+00
R16 2016 01 05 19 15 00 0.275056809187D-04 0.909494701773D-12 0.684000000000D+05
     0.115396889648D+05-0.103015136719D+01 0.186264514923D-08 0.000000000000D+00
    -0.938883300781D+03 0.294210433960D+01 0.186264514923D-08-0.100000000000D+01
     0.227099418945D+05 0.636841773987D+00-0.931322574615D-09 0.000000000000D+00
R18 2016 01 05 19 45 00 0.834502279758D-04 0.909494701773D-12 0.702000000000D+05
     0.138196674805D+05-0.956840515137D+00 0.372529029846D-08 0.000000000000D+00
     0.187044814453D+05-0.107280731201D+01 0.931322574615D-09-0.300000000000D+01
     0.104232426758D+05 0.320388984680D+01 0.931322574615D-09 0.000000000000D+00
R19 2016 01 05 19 45 00-0.144986435771D-03-0.909494701773D-12 0.702000000000D+05
     0.201711850586D+05 0.978869438171D+00 0.279396772385D-08 0.000000000000D+00
     0.131803579102D+05 0.630642890930D+00 0.931322574615D-09 0.300000000000D+01
    -0.837630712891D+04 0.334780502319D+01 0.186264514923D-08 0.000000000000D+00
R15 2016 01 05 19 45 00 0.609774142504D-04 0.909494701773D-12 0.702000000000D+05
     0.129346337891D+04-0.145873069763D+00 0.279396772385D-08 0.000000000000D+00
     0.221840922852D+05 0.173173713684D+01 0.000000000000D+00 0.000000000000D+00
     0.126336044922D+05-0.301927280426D+01 0.000000000000D+00 0.000000000000D+00
R14 2016 01 05 19 45 00 0.264914706349D-03 0.363797880709D-11 0.702000000000D+05
    -0.614477099609D+04 0.289518356323D+00 0.931322574615D-09 0.000000000000D+00
     0.246012978516D+05-0.279561996460D+00-0.931322574615D-09-0.700000000000D+01
    -0.243097216797D+04-0.358848285675D+01 0.931322574615D-09 0.000000000000D+00
R 5 2016 01 05 19 45 00 0.274088233709D-05 0.000000000000D+00 0.702000000000D+05
     0.209845820313D+05-0.190642452240D+01 0.931322574615D-09 0.000000000000D+00
     0.370312500000D+02 0.561569213867D+00 0.931322574615D-09 0.100000000000D+01
    -0.145230966797D+05-0.275525474548D+01 0.279396772385D-08 0.000000000000D+00
R16 2016 01 05 19 45 00 0.275075435638D-04 0.000000000000D+00 0.702000000000D+05
     0.100650087891D+05-0.593373298645D+00 0.279396772385D-08 0.000000000000D+00
     0.454150537109D+04 0.309712028503D+01 0.186264514923D-08-0.100000000000D+01
     0.229614560547D+05-0.359440803528D+00 0.000000000000D+00 0.000000000000D+00
R 6 2016 01 05 19 45 00 0.813826918602D-04 0.000000000000D+00 0.702000000000D+05
     0.232815805664D+05 0.369446754456D+00 0.186264514923D-08 0.000000000000D+00
    -0.987939355469D+04-0.271379470825D+00 0.186264514923D-08-0.400000000000D+01
     0.318331542969D+04-0.352515983582D+01 0.931322574615D-09 0.000000000000D+00
R 4 2016 01 05 19 45 00 0.152038410306D-03 0.909494701773D-12 0.702300000000D+05
     0.647419238281D+04-0.296390914917D+01 0.000000000000D+00 0.000000000000D+00
     0.929843457031D+04 0.100560760498D+01-0.931322574615D-09 0.600000000000D+01
    -0.228456557617D+05-0.431341171265D+00 0.279396772385D-08 0.000000000000D+00
R18 2016 01 05 20 15 00 0.834530219436D-04 0.909494701773D-12 0.720000000000D+05
     0.114201538086D+05-0.170644092560D+01 0.372529029846D-08 0.000000000000D+00
     0.165115004883D+05-0.131843662262D+01 0.931322574615D-09-0.300000000000D+01
     0.157116201172D+05 0.263394451141D+01 0.000000000000D+00 0.000000000000D+00
R19 2016 01 05 20 15 00-0.144988298416D-03-0.909494701773D-12 0.720000000000D+05
     0.214031801758D+05 0.355205535889D+00 0.279396772385D-08 0.000000000000D+00
     0.137216616211D+05-0.485706329346D-02 0.931322574615D-09 0.300000000000D+01
    -0.210431738281D+04 0.357582378387D+01 0.186264514923D-08 0.000000000000D+00
R15 2016 01 05 20 15 00 0.609802082181D-04 0.909494701773D-12 0.720000000000D+05
     0.134302685547D+04 0.165904045105D+00 0.186264514923D-08 0.000000000000D+00
     0.246127670898D+05 0.939625740051D+00 0.000000000000D+00 0.000000000000D+00
     0.678338183594D+04-0.343901252747D+01 0.000000000000D+00 0.000000000000D+00
R16 2016 01 05 20 15 00 0.275094062090D-04 0.000000000000D+00 0.720000000000D+05
     0.942505859375D+04-0.120903015137D+00 0.279396772385D-08 0.000000000000D+00
     0.100245034180D+05 0.294332218170D+01 0.931322574615D-09-0.100000000000D+01
     0.214319350586D+05-0.132914638519D+01 0.000000000000D+00 0.000000000000D+00
R 6 2016 01 05 20 15 00 0.813836231828D-04 0.000000000000D+00 0.720000000000D+05
     0.231957924805D+05-0.448777198792D+00 0.186264514923D-08 0.000000000000D+00
    -0.100852231445D+05 0.797119140625D-01 0.931322574615D-09-0.400000000000D+01
    -0.320314599609D+04-0.352473926544D+01 0.186264514923D-08 0.000000000000D+00
